{
  "norad_id": 52374,
  "name": "STARLINK-3762",
  "history": [
    {
      "epoch": "2026-04-11T12:59:23.638848Z",
      "apogee_km": 540.4967011289191,
      "perigee_km": 539.0162719228019,
      "latitude_deg": 5.3466313519220675e-05,
      "longitude_deg": 7.037190233308929,
      "height_km": 540.7158051048788,
      "semi_major_axis_km": 6917.89348652586,
      "eccentricity": 0.000107,
      "inclination_deg": 53.2192,
      "raan_deg": 41.6449,
      "arg_perigee_deg": 94.8847,
      "mean_anomaly_deg": 265.2268,
      "mean_motion_rev_day": 15.08835715
    },
    {
      "epoch": "2026-04-13T04:44:02.116608Z",
      "apogee_km": 540.4891687958852,
      "perigee_km": 539.002377430289,
      "latitude_deg": -2.2360412045740616e-05,
      "longitude_deg": 121.81007978132472,
      "height_km": 540.6409499089875,
      "semi_major_axis_km": 6917.882773113087,
      "eccentricity": 0.00010746,
      "inclination_deg": 53.2179,
      "raan_deg": 34.2104,
      "arg_perigee_deg": 89.9248,
      "mean_anomaly_deg": 270.1867,
      "mean_motion_rev_day": 15.0883922
    },
    {
      "epoch": "2026-04-14T18:53:17.378016Z",
      "apogee_km": 540.5407653190923,
      "perigee_km": 538.952419246305,
      "latitude_deg": 3.2894666346051864e-05,
      "longitude_deg": -99.20710560307266,
      "height_km": 540.6160184066155,
      "semi_major_axis_km": 6917.883592282698,
      "eccentricity": 0.0001148,
      "inclination_deg": 53.2166,
      "raan_deg": 27.0737,
      "arg_perigee_deg": 88.0891,
      "mean_anomaly_deg": 272.0233,
      "mean_motion_rev_day": 15.08838952
    },
    {
      "epoch": "2026-04-15T20:19:27.574752Z",
      "apogee_km": 540.5760198885191,
      "perigee_km": 538.9018939069492,
      "latitude_deg": -4.416860993609241e-05,
      "longitude_deg": -126.55197349362932,
      "height_km": 540.5868346023002,
      "semi_major_axis_km": 6917.875956897734,
      "eccentricity": 0.000121,
      "inclination_deg": 53.2175,
      "raan_deg": 22.316,
      "arg_perigee_deg": 86.7088,
      "mean_anomaly_deg": 273.4042,
      "mean_motion_rev_day": 15.0884145
    },
    {
      "epoch": "2026-04-16T18:34:51.502080Z",
      "apogee_km": 540.5840426084169,
      "perigee_km": 538.912681504944,
      "latitude_deg": 4.666039125837615e-05,
      "longitude_deg": -105.47894938134856,
      "height_km": 540.6089584173537,
      "semi_major_axis_km": 6917.885362056681,
      "eccentricity": 0.0001208,
      "inclination_deg": 53.2171,
      "raan_deg": 18.1527,
      "arg_perigee_deg": 87.5803,
      "mean_anomaly_deg": 272.5328,
      "mean_motion_rev_day": 15.08838373
    },
    {
      "epoch": "2026-04-17T21:36:25.361856Z",
      "apogee_km": 540.6287978916607,
      "perigee_km": 538.9011210563003,
      "latitude_deg": -1.8523090975556677e-05,
      "longitude_deg": -157.0344001219372,
      "height_km": 540.6669517420435,
      "semi_major_axis_km": 6917.90195947398,
      "eccentricity": 0.00012487,
      "inclination_deg": 53.2184,
      "raan_deg": 13.0983,
      "arg_perigee_deg": 90.3997,
      "mean_anomaly_deg": 269.7138,
      "mean_motion_rev_day": 15.08832943
    },
    {
      "epoch": "2026-04-18T10:19:30.301248Z",
      "apogee_km": 540.6667566577289,
      "perigee_km": 538.8505323352219,
      "latitude_deg": -4.597052361230736e-05,
      "longitude_deg": 9.293887492546661,
      "height_km": 540.657271345697,
      "semi_major_axis_km": 6917.895644496475,
      "eccentricity": 0.00013127,
      "inclination_deg": 53.2187,
      "raan_deg": 10.7195,
      "arg_perigee_deg": 90.1711,
      "mean_anomaly_deg": 269.9431,
      "mean_motion_rev_day": 15.08835009
    },
    {
      "epoch": "2026-04-19T10:10:17.267808Z",
      "apogee_km": 540.6618635006171,
      "perigee_km": 538.8383084647521,
      "latitude_deg": 1.7164724474593876e-05,
      "longitude_deg": 6.158303884001059,
      "height_km": 540.5816453066449,
      "semi_major_axis_km": 6917.887085982685,
      "eccentricity": 0.0001318,
      "inclination_deg": 53.2188,
      "raan_deg": 6.2589,
      "arg_perigee_deg": 85.9525,
      "mean_anomaly_deg": 274.1618,
      "mean_motion_rev_day": 15.08837809
    }
  ]
}